NORAD_CAT_ID,OBJECT_NAME,OBJECT_TYPE,EPOCH,MEAN_MOTION,ECCENTRICITY,INCLINATION,RA_OF_ASC_NODE,ARG_OF_PERICENTER,MEAN_ANOMALY,BSTAR,MEAN_MOTION_DOT,MEAN_MOTION_DDOT,TLE_LINE0,TLE_LINE1,TLE_LINE2,SEMIMAJOR_AXIS,PERIOD,APOGEE,PERIGEE,DECAYED
51758.0,STARLINK-3458,PAYLOAD,2022-05-06 22:00:00,15.55120382,0.0001423,53.2172,132.6031,43.7941,44.5152,-0.011375,-0.00713734,0.0,0 STARLINK-3458,1 51758U 22016AW  22126.91667824 -.00713734  00000-0 -11375-1 0  9998,2 51758  53.2172 132.6031 0001423  43.7941  44.5152 15.55120382 12974,6779.94,92.597,402.77,400.84,0.0
51758.0,STARLINK-3458,PAYLOAD,2022-05-07 14:00:01,15.54102278,0.0001503,53.2172,129.401,50.0578,171.4201,-0.011853,-0.00716106,0.0,0 STARLINK-3458,1 51758U 22016AW  22127.58334491 -.00716106  00000-0 -11853-1 0  9990,2 51758  53.2172 129.4010 0001503  50.0578 171.4201 15.54102278  3711,6782.9,92.658,405.785,403.746,0.0
51758.0,STARLINK-3458,PAYLOAD,2022-05-07 22:00:00,15.53589494,0.0001458,53.2174,127.799,46.989,240.1571,-0.011991,-0.00711367,0.0,0 STARLINK-3458,1 51758U 22016AW  22127.91667824 -.00711367  00000-0 -11991-1 0  9993,2 51758  53.2174 127.7990 0001458  46.9890 240.1571 15.53589494 13130,6784.393,92.689,407.247,405.269,0.0
51758.0,STARLINK-3458,PAYLOAD,2022-05-08 14:00:01,15.52570987,0.0001388,53.2172,124.6043,43.5355,13.1027,-0.012473,-0.00712834,0.0,0 STARLINK-3458,1 51758U 22016AW  22128.58334491 -.00712834  00000-0 -12473-1 0  9994,2 51758  53.2172 124.6043 0001388  43.5355  13.1027 15.52570987  3706,6787.36,92.749,410.167,408.283,0.0
51758.0,STARLINK-3458,PAYLOAD,2022-05-08 20:00:01,15.52186384,0.000136,53.2175,123.4055,42.0376,332.5307,-0.012593,-0.00709976,0.0,0 STARLINK-3458,1 51758U 22016AW  22128.83334491 -.00709976  00000-0 -12593-1 0  9998,2 51758  53.2175 123.4055 0001360  42.0376 332.5307 15.52186384 13272,6788.481,92.772,411.269,409.423,0.0
51758.0,STARLINK-3458,PAYLOAD,2022-05-08 22:00:00,15.52061091,0.0001541,53.2175,123.0063,42.9586,77.5084,-0.012723,-0.00713748,0.0,0 STARLINK-3458,1 51758U 22016AW  22128.91667824 -.00713748  00000-0 -12723-1 0  9993,2 51758  53.2175 123.0063 0001541  42.9586  77.5084 15.52061091  3702,6788.846,92.78,411.757,409.665,0.0
51758.0,STARLINK-3458,PAYLOAD,2022-05-09 14:00:01,15.51042198,0.0001479,53.2172,119.8184,52.7881,193.5596,-0.01323,-0.0072445999999999,0.0,0 STARLINK-3458,1 51758U 22016AW  22129.58335648 -.00724460  00000-0 -13230-1 0  9990,2 51758  53.2172 119.8184 0001479  52.7881 193.5596 15.51042198  3706,6791.819,92.841,414.68800000000016,412.679,0.0
51758.0,STARLINK-3458,PAYLOAD,2022-05-09 22:00:00,15.50517206,0.0001409999999999,53.2174,118.2236,53.2792,254.998,-0.01284,-0.00683984,0.0,0 STARLINK-3458,1 51758U 22016AW  22129.91667824 -.00683984  00000-0 -12840-1 0  9992,2 51758  53.2174 118.2236 0001410  53.2792 254.9980 15.50517206  3706,6793.352,92.872,416.175,414.259,0.0
51758.0,STARLINK-3458,PAYLOAD,2022-05-10 00:00:00,15.50345198,0.0001349,53.2175,117.8257,48.7292,4.958,-0.010637,-0.00571345,0.0,0 STARLINK-3458,1 51758U 22016AW  22130.00001157 -.00571345  00000-0 -10637-1 0  9994,2 51758  53.2175 117.8257 0001349  48.7292   4.9580 15.50345198 13451,6793.854,92.883,416.636,414.80300000000005,0.0
51758.0,STARLINK-3458,PAYLOAD,2022-05-10 08:00:01,15.49886273,0.0001781,53.2174,116.2348,35.5447,79.35600000000002,-2.9883e-05,-2.148e-05,0.0,0 STARLINK-3458,1 51758U 22016AW  22130.33334491 -.00002148  00000-0 -29883-4 0  9996,2 51758  53.2174 116.2348 0001781  35.5447  79.3560 15.49886273 13513,6795.195,92.91,418.271,415.85,0.0
51758.0,STARLINK-3458,PAYLOAD,2022-05-10 14:00:01,15.49866497,0.0001478,53.2166,115.0381,49.0955,21.5006,0.00056592,0.00031777,0.0,0 STARLINK-3458,1 51758U 22016AW  22130.58334491  .00031777  00000-0  56592-3 0  9997,2 51758  53.2166 115.0381 0001478  49.0955  21.5006 15.49866497  3705,6795.253000000002,92.911,418.12300000000016,416.114,0.0
51758.0,STARLINK-3458,PAYLOAD,2022-05-10 18:00:00,15.49936147,0.0001419999999999,53.2159,114.2313,46.3622,234.8079,9.0801e-05,4.714e-05,0.0,0 STARLINK-3458,1 51758U 22016AW  22130.75001157  .00004714  00000-0  90801-4 0  9999,2 51758  53.2159 114.2313 0001420  46.3622 234.8079 15.49936147 13576,6795.05,92.907,417.88,415.95,0.0
51758.0,STARLINK-3458,PAYLOAD,2022-05-11 22:00:00,15.49839698,0.0001481,53.2166,108.6548,49.7402,264.7173,0.00068037,0.0003829,0.0,0 STARLINK-3458,1 51758U 22016AW  22131.91667824  .00038290  00000-0  68037-3 0  9998,2 51758  53.2166 108.6548 0001481  49.7402 264.7173 15.49839698 13751,6795.331999999999,92.913,418.203,416.19,0.0
51758.0,STARLINK-3458,PAYLOAD,2022-05-12 14:00:01,15.49885794,0.0001613,53.2159,105.4698,45.6205,30.5935,-0.0003102,-0.00018017,0.0,0 STARLINK-3458,1 51758U 22016AW  22132.58334491 -.00018017  00000-0 -31020-3 0  9992,2 51758  53.2159 105.4698 0001613  45.6205  30.5935 15.49885794  1308,6795.196999999999,92.91,418.158,415.966,0.0
51758.0,STARLINK-3458,PAYLOAD,2022-05-12 20:00:01,15.49858627,0.0001494,53.2159,104.2738,51.7543,340.147,0.0010917,0.00061942,0.0,0 STARLINK-3458,1 51758U 22016AW  22132.83334491  .00061942  00000-0  10917-2 0  9994,2 51758  53.2159 104.2738 0001494  51.7543 340.1470 15.49858627 13896,6795.276,92.912,418.156,416.126,0.0
51758.0,STARLINK-3458,PAYLOAD,2022-05-12 22:00:00,15.49881715,0.0001518,53.2162,103.8758,53.8793,83.2398,0.00059885,0.00033679,0.0,0 STARLINK-3458,1 51758U 22016AW  22132.91667824  .00033679  00000-0  59885-3 0  9996,2 51758  53.2162 103.8758 0001518  53.8793  83.2398 15.49881715  1305,6795.209,92.91,418.105,416.042,0.0
51758.0,STARLINK-3458,PAYLOAD,2022-05-13 06:00:00,15.49888734,0.0001694,53.216,102.2846,46.4629,151.5796,0.00039136,0.00021825,0.0,0 STARLINK-3458,1 51758U 22016AW  22133.25001157  .00021825  00000-0  39136-3 0  9992,2 51758  53.2160 102.2846 0001694  46.4629 151.5796 15.49888734 13969,6795.188,92.91,418.204,415.902,0.0
51758.0,STARLINK-3458,PAYLOAD,2022-05-13 14:00:01,15.49924588,0.000156,53.2156,100.6903,48.1824,210.7809,-0.00042854,-0.00024731,0.0,0 STARLINK-3458,1 51758U 22016AW  22133.58334491 -.00024731  00000-0 -42854-3 0  9990,2 51758  53.2156 100.6903 0001560  48.1824 210.7809 15.49924588  1304,6795.083000000001,92.908,418.009,415.888,0.0
51758.0,STARLINK-3458,PAYLOAD,2022-05-13 22:00:00,15.49950159,0.0001373,53.216,99.0962,53.6304,266.2747,-0.0012367,-0.00070176,0.0,0 STARLINK-3458,1 51758U 22016AW  22133.91667824 -.00070176  00000-0 -12367-2 0  9995,2 51758  53.2160  99.0962 0001373  53.6304 266.2747 15.49950159  1301,6795.009,92.906,417.807,415.941,0.0
51758.0,STARLINK-3458,PAYLOAD,2022-05-14 06:00:00,15.49896129,0.0001537,53.2163,97.5051,44.927,335.9517,-0.00047217,-0.00027168,0.0,0 STARLINK-3458,1 51758U 22016AW  22134.25001157 -.00027168  00000-0 -47217-3 0  9990,2 51758  53.2163  97.5051 0001537  44.9270 335.9517 15.49896129 14111,6795.167,92.909,418.076,415.987,0.0
51758.0,STARLINK-3458,PAYLOAD,2022-05-14 14:00:01,15.4990575,0.0001384,53.2165,95.9107,43.933,37.8706,-0.00013227,-7.956e-05,0.0,0 STARLINK-3458,1 51758U 22016AW  22134.58334491 -.00007956  00000-0 -13227-3 0  9993,2 51758  53.2165  95.9107 0001384  43.9330  37.8706 15.49905750 14167,6795.139,92.909,417.944,416.06300000000016,0.0
51758.0,STARLINK-3458,PAYLOAD,2022-05-14 22:00:00,15.49911431,0.0001446,53.2168,94.3196,51.1891,91.541,0.00057256,0.00032208,0.0,0 STARLINK-3458,1 51758U 22016AW  22134.91667824  .00032208  00000-0  57256-3 0  9995,2 51758  53.2168  94.3196 0001446  51.1891  91.5410 15.49911431  1307,6795.121999999999,92.909,417.97,416.004,0.0
51758.0,STARLINK-3458,PAYLOAD,2022-05-15 06:00:00,15.4980554,0.0001781,53.2174,92.7337,36.5144,167.2161,-0.0083794,-0.00448554,0.0,0 STARLINK-3458,1 51758U 22016AW  22135.25001157 -.00448554  00000-0 -83794-2 0  9996,2 51758  53.2174  92.7337 0001781  36.5144 167.2161 15.49805540 14270,6795.431,92.915,418.507,416.086,0.0
51758.0,STARLINK-3458,PAYLOAD,2022-05-15 14:00:01,15.49780665,0.0001395,53.2174,91.145,50.9109,213.429,-0.014135,-0.00738751,0.0,0 STARLINK-3458,1 51758U 22016AW  22135.58335648 -.00738751  00000-0 -14135-1 0  9990,2 51758  53.2174  91.1450 0001395  50.9109 213.4290 15.49780665 14324,6795.504,92.916,418.317,416.421,0.0
51758.0,STARLINK-3458,PAYLOAD,2022-05-15 22:00:00,15.4925845,0.0001561,53.2178,89.5554,42.5195,282.2219,-0.014048,-0.00722067,0.0,0 STARLINK-3458,1 51758U 22016AW  22135.91667824 -.00722067  00000-0 -14048-1 0  9997,2 51758  53.2178  89.5554 0001561  42.5195 282.2219 15.49258450  1302,6797.031,92.948,419.957,417.835,0.0
51758.0,STARLINK-3458,PAYLOAD,2022-05-16 14:00:01,15.48237208,0.0001426999999999,53.2175,86.3801,45.4644,38.3578,-0.014533,-0.00720651,0.0,0 STARLINK-3458,1 51758U 22016AW  22136.58334491 -.00720651  00000-0 -14533-1 0  9998,2 51758  53.2175  86.3801 0001427  45.4644  38.3578 15.48237208  1306,6800.02,93.009,422.855,420.914,0.0
51758.0,STARLINK-3458,PAYLOAD,2022-05-16 22:00:00,15.47726543,0.0001641,53.2177,84.7939,42.524,99.9196,-0.014761,-0.00719116,0.0,0 STARLINK-3458,1 51758U 22016AW  22136.91667824 -.00719116  00000-0 -14761-1 0  9991,2 51758  53.2177  84.7939 0001641  42.5240  99.9196 15.47726543 14532,6801.515,93.04,424.497,422.264,0.0
51758.0,STARLINK-3458,PAYLOAD,2022-05-17 14:00:01,15.46709285,0.0001392,53.2175,81.6256,58.0263,199.8842,-0.015401,-0.00723723,0.0,0 STARLINK-3458,1 51758U 22016AW  22137.58335648 -.00723723  00000-0 -15401-1 0  9992,2 51758  53.2175  81.6256 0001392  58.0263 199.8842 15.46709285  1300,6804.496999999999,93.101,427.309,425.415,0.0
51758.0,STARLINK-3458,PAYLOAD,2022-05-17 20:00:01,15.46325265,0.0001573,53.2174,80.4383,51.50899999999999,158.9819,-0.015518,-0.00719896,0.0,0 STARLINK-3458,1 51758U 22016AW  22137.83334491 -.00719896  00000-0 -15518-1 0  9990,2 51758  53.2174  80.4383 0001573  51.5090 158.9819 15.46325265 14670,6805.624,93.124,428.559,426.418,0.0
